$$SOE
2459580.500000000, A.D. 2022-Jan-01 00:00:00.0000, 2.859703143126442E+08, -3.315139539387316E+08, -4.406212708486587E+06,
2459587.500000000, A.D. 2022-Jan-08 00:00:00.0000, 2.935111025097488E+08, -3.243009571349908E+08, -4.161207660070762E+06,
2459594.500000000, A.D. 2022-Jan-15 00:00:00.0000, 3.008818559786867E+08, -3.168998225175861E+08, -3.913794869643182E+06,
2459601.500000000, A.D. 2022-Jan-22 00:00:00.0000, 3.080778071806713E+08, -3.093143132785907E+08, -3.664112152059123E+06,
2459608.500000000, A.D. 2022-Jan-29 00:00:00.0000, 3.150942591749717E+08, -3.015483149723651E+08, -3.412299300667599E+06,
2459615.500000000, A.D. 2022-Feb-05 00:00:00.0000, 3.219265867690497E+08, -2.936058356447807E+08, -3.158497890558735E+06,
2459622.500000000, A.D. 2022-Feb-12 00:00:00.0000, 3.285702398850006E+08, -2.854910069410850E+08, -2.902851364323393E+06,
2459629.500000000, A.D. 2022-Feb-19 00:00:00.0000, 3.350207478162437E+08, -2.772080838190813E+08, -2.645505085226163E+06,
2459636.500000000, A.D. 2022-Feb-26 00:00:00.0000, 3.412737230614138E+08, -2.687614435870364E+08, -2.386606296638250E+06,
2459643.500000000, A.D. 2022-Mar-05 00:00:00.0000, 3.473248648923533E+08, -2.601555848793617E+08, -2.126304052894771E+06,
2459650.500000000, A.D. 2022-Mar-12 00:00:00.0000, 3.531699628753421E+08, -2.513951266316946E+08, -1.864749147479847E+06,
2459657.500000000, A.D. 2022-Mar-19 00:00:00.0000, 3.588049004137334E+08, -2.424848070232435E+08, -1.602094042968228E+06,
2459664.500000000, A.D. 2022-Mar-26 00:00:00.0000, 3.642256583310534E+08, -2.334294823883251E+08, -1.338492805469006E+06,
2459671.500000000, A.D. 2022-Apr-02 00:00:00.0000, 3.694283185581892E+08, -2.242341261486888E+08, -1.074101054610252E+06,
2459678.500000000, A.D. 2022-Apr-09 00:00:00.0000, 3.744090681920100E+08, -2.149038277566682E+08, -8.090759539044499E+05,
2459685.500000000, A.D. 2022-Apr-16 00:00:00.0000, 3.791642042789935E+08, -2.054437909895657E+08, -5.435762209160626E+05,
2459692.500000000, A.D. 2022-Apr-23 00:00:00.0000, 3.836901380530789E+08, -1.958593305073727E+08, -2.777619520701468E+05,
2459699.500000000, A.D. 2022-Apr-30 00:00:00.0000, 3.879833967541668E+08, -1.861558689171898E+08, -1.179427395085990E+04,
2459706.500000000, A.D. 2022-May-07 00:00:00.0000, 3.920406260836967E+08, -1.763389363143522E+08, 2.541647365368605E+05,
2459713.500000000, A.D. 2022-May-14 00:00:00.0000, 3.958585946810786E+08, -1.664141692574185E+08, 5.199519839212671E+05,
2459720.500000000, A.D. 2022-May-21 00:00:00.0000, 3.994341985854570E+08, -1.563873084152138E+08, 7.854033862713650E+05,
2459727.500000000, A.D. 2022-May-28 00:00:00.0000, 4.027644651984384E+08, -1.462641958426753E+08, 1.050353973321326E+06,
2459734.500000000, A.D. 2022-Jun-04 00:00:00.0000, 4.058465570175374E+08, -1.360507721961071E+08, 1.314637999592438E+06,
2459741.500000000, A.D. 2022-Jun-11 00:00:00.0000, 4.086777752764874E+08, -1.257530738824579E+08, 1.578089059256494E+06,
2459748.500000000, A.D. 2022-Jun-18 00:00:00.0000, 4.112555635228456E+08, -1.153772301250043E+08, 1.840540200070918E+06,
2459755.500000000, A.D. 2022-Jun-25 00:00:00.0000, 4.135775111557264E+08, -1.049294599741165E+08, 2.101824030861251E+06,
2459762.500000000, A.D. 2022-Jul-02 00:00:00.0000, 4.156413570525024E+08, -9.441606932570538E+07, 2.361772804882366E+06,
2459769.500000000, A.D. 2022-Jul-09 00:00:00.0000, 4.174449936691352E+08, -8.384344776859453E+07, 2.620218457760174E+06,
2459776.500000000, A.D. 2022-Jul-16 00:00:00.0000, 4.189864715533730E+08, -7.321806417641954E+07, 2.876992693784606E+06,
2459783.500000000, A.D. 2022-Jul-23 00:00:00.0000, 4.202640020687457E+08, -6.254646096654490E+07, 3.131927329042271E+06,
2459790.500000000, A.D. 2022-Jul-30 00:00:00.0000, 4.212759584077277E+08, -5.183525038282607E+07, 3.384854609742425E+06,
2459797.500000000, A.D. 2022-Aug-06 00:00:00.0000, 4.220208784825931E+08, -4.109111215552057E+07, 3.635607228335032E+06,
2459804.500000000, A.D. 2022-Aug-13 00:00:00.0000, 4.224974688612290E+08, -3.032078978360231E+07, 3.884018337939867E+06,
2459811.500000000, A.D. 2022-Aug-20 00:00:00.0000, 4.227046081709646E+08, -1.953108594354044E+07, 4.129921667979043E+06,
2459818.500000000, A.D. 2022-Aug-27 00:00:00.0000, 4.226413500311218E+08, -8.728857752955856E+06, 4.373151675431600E+06,
2459825.500000000, A.D. 2022-Sep-03 00:00:00.0000, 4.223069257544406E+08, 2.078987997685400E+06, 4.613543699909185E+06,
2459832.500000000, A.D. 2022-Sep-10 00:00:00.0000, 4.217007468994440E+08, 1.288549966595143E+07, 4.850934116162941E+06,
2459839.500000000, A.D. 2022-Sep-17 00:00:00.0000, 4.208224076948888E+08, 2.368368562517690E+07, 5.085160481032420E+06,
2459846.500000000, A.D. 2022-Sep-24 00:00:00.0000, 4.196716873882430E+08, 3.446651912346489E+07, 5.316061664901581E+06,
2459853.500000000, A.D. 2022-Oct-01 00:00:00.0000, 4.182485527489777E+08, 4.522694310603937E+07, 5.543477943400880E+06,
2459860.500000000, A.D. 2022-Oct-08 00:00:00.0000, 4.165531611227576E+08, 5.595787551718694E+07, 5.767251053980339E+06,
2459867.500000000, A.D. 2022-Oct-15 00:00:00.0000, 4.145858630931743E+08, 6.665221627741524E+07, 5.987224400305647E+06,
2459874.500000000, A.D. 2022-Oct-22 00:00:00.0000, 4.123472025633603E+08, 7.730285424899685E+07, 6.203243466919370E+06,
2459881.500000000, A.D. 2022-Oct-29 00:00:00.0000, 4.098379167505564E+08, 8.790267158945182E+07, 6.415156002668597E+06,
2459888.500000000, A.D. 2022-Nov-05 00:00:00.0000, 4.070589381841432E+08, 9.844454822641829E+07, 6.622812003580168E+06,
2459895.500000000, A.D. 2022-Nov-12 00:00:00.0000, 4.040113967342165E+08, 1.089213677146092E+08, 6.826063778544314E+06,
2459902.500000000, A.D. 2022-Nov-19 00:00:00.0000, 4.006966209450911E+08, 1.193260235133676E+08, 7.024766085572019E+06,
2459909.500000000, A.D. 2022-Nov-26 00:00:00.0000, 3.971161389297540E+08, 1.296514252790847E+08, 7.218776281849690E+06,
2459916.500000000, A.D. 2022-Dec-03 00:00:00.0000, 3.932716789847872E+08, 1.398905051520786E+08, 7.407954471171595E+06,
2459923.500000000, A.D. 2022-Dec-10 00:00:00.0000, 3.891651699647455E+08, 1.500362240475974E+08, 7.592163645887122E+06,
2459930.500000000, A.D. 2022-Dec-17 00:00:00.0000, 3.847987414345369E+08, 1.600815779169116E+08, 7.771269818887986E+06,
2459937.500000000, A.D. 2022-Dec-24 00:00:00.0000, 3.801747237038455E+08, 1.700196039035499E+08, 7.945142130100191E+06,
2459944.500000000, A.D. 2022-Dec-31 00:00:00.0000, 3.752956480967867E+08, 1.798433864923004E+08, 8.113652903274007E+06,
2459951.500000000, A.D. 2023-Jan-07 00:00:00.0000, 3.701642475739154E+08, 1.895460646019223E+08, 8.276677720057562E+06,
2459958.500000000, A.D. 2023-Jan-14 00:00:00.0000, 3.647834557323315E+08, 1.991208401086483E+08, 8.434095732250527E+06,
2459965.500000000, A.D. 2023-Jan-21 00:00:00.0000, 3.591564035376610E+08, 2.085609846211058E+08, 8.585790012539253E+06,
2459972.500000000, A.D. 2023-Jan-28 00:00:00.0000, 3.532864174575243E+08, 2.178598443002952E+08, 8.731647591168404E+06,
2459979.500000000, A.D. 2023-Feb-04 00:00:00.0000, 3.471770187853385E+08, 2.270108457390452E+08, 8.871559444636881E+06,
2459986.500000000, A.D. 2023-Feb-11 00:00:00.0000, 3.408319223567016E+08, 2.360075026950687E+08, 9.005420585033312E+06,
2459993.500000000, A.D. 2023-Feb-18 00:00:00.0000, 3.342550345937560E+08, 2.448434228415599E+08, 9.133130188251033E+06,
2460000.500000000, A.D. 2023-Feb-25 00:00:00.0000, 3.274504511383046E+08, 2.535123143600241E+08, 9.254591723335221E+06,
2460007.500000000, A.D. 2023-Mar-04 00:00:00.0000, 3.204224541732302E+08, 2.620079923816646E+08, 9.369713074782968E+06,
2460014.500000000, A.D. 2023-Mar-11 00:00:00.0000, 3.131755094593765E+08, 2.703243852675824E+08, 9.478406655184180E+06,
2460021.500000000, A.D. 2023-Mar-18 00:00:00.0000, 3.057142631365190E+08, 2.784555406698375E+08, 9.580589500146151E+06,
2460028.500000000, A.D. 2023-Mar-25 00:00:00.0000, 2.980435384966974E+08, 2.863956313178191E+08, 9.676183323416159E+06,
2460035.500000000, A.D. 2023-Apr-01 00:00:00.0000, 2.901683331617254E+08, 2.941389609131959E+08, 9.765114525596410E+06,
2460042.500000000, A.D. 2023-Apr-08 00:00:00.0000, 2.820938160556354E+08, 3.016799713443719E+08, 9.847314312691510E+06,
2460049.500000000, A.D. 2023-Apr-15 00:00:00.0000, 2.738253218366743E+08, 3.090132501000378E+08, 9.922719048293278E+06,
2460056.500000000, A.D. 2023-Apr-22 00:00:00.0000, 2.653683446029727E+08, 3.161335348214341E+08, 9.991270424344376E+06,
2460063.500000000, A.D. 2023-Apr-29 00:00:00.0000, 2.567285336159757E+08, 3.230357172354417E+08, 1.005291538333888E+07,
2460070.500000000, A.D. 2023-May-06 00:00:00.0000, 2.479116892868612E+08, 3.297148482359563E+08, 1.010760609838472E+07,
2460077.500000000, A.D. 2023-May-13 00:00:00.0000, 2.389237584543327E+08, 3.361661432085692E+08, 1.015530002740052E+07,
2460084.500000000, A.D. 2023-May-20 00:00:00.0000, 2.297708291949467E+08, 3.423849870973623E+08, 1.019595997954498E+07,
2460091.500000000, A.D. 2023-May-27 00:00:00.0000, 2.204591253675251E+08, 3.483669391745625E+08, 1.022955417336203E+07,
2460098.500000000, A.D. 2023-Jun-03 00:00:00.0000, 2.109950009579070E+08, 3.541077375294783E+08, 1.025605628308633E+07,
2460105.500000000, A.D. 2023-Jun-10 00:00:00.0000, 2.013849342569808E+08, 3.596033032537737E+08, 1.027544546941063E+07,
2460112.500000000, A.D. 2023-Jun-17 00:00:00.0000, 1.916355219706252E+08, 3.648497442543975E+08, 1.028770638129047E+07,
2460119.500000000, A.D. 2023-Jun-24 00:00:00.0000, 1.817534735917689E+08, 3.698433587422872E+08, 1.029282910370450E+07,
2460126.500000000, A.D. 2023-Jul-01 00:00:00.0000, 1.717456062994693E+08, 3.745806392184551E+08, 1.029080909550852E+07,
2460133.500000000, A.D. 2023-Jul-08 00:00:00.0000, 1.616188387235257E+08, 3.790582777706583E+08, 1.028164733758891E+07,
2460140.500000000, A.D. 2023-Jul-15 00:00:00.0000, 1.513801823064647E+08, 3.832731698408949E+08, 1.026535057708323E+07,
2460147.500000000, A.D. 2023-Jul-22 00:00:00.0000, 1.410367337943382E+08, 3.872224154270826E+08, 1.024193126051417E+07,
$$EOE